*******************************************************************************
Ephemeris / WWW_USER Mon Mar 10 08:38:14 2025 Pasadena, USA      / Horizons    
*******************************************************************************
Target body name: (2017 UW51)                     {source: JPL#9}
Center body name: Earth (399)                     {source: DE441}
Center-site name: Mauna Kea
*******************************************************************************
Start time      : A.D. 2018-Aug-09 05:04:00.0000 UT      
Stop  time      : A.D. 2018-Aug-09 15:50:00.0000 UT      
Step-size       : 1 minutes
*******************************************************************************
Target pole/equ : undefined
Target radii    : undefined                                                    
Center geodetic : 204.5278, 19.8260847, 4.21024   {E-lon(deg),Lat(deg),Alt(km)}
Center cylindric: 204.5278, 6006.35451, 2151.0229 {E-lon(deg),Dxy(km),Dz(km)}
Center pole/equ : ITRF93                          {East-longitude positive}
Center radii    : 6378.137, 6378.137, 6356.752 km {Equator_a, b, pole_c}       
Target primary  : Sun
Vis. interferer : MOON (R_eq= 1737.400) km        {source: DE441}
Rel. light bend : Sun                             {source: DE441}
Rel. lght bnd GM: 1.3271E+11 km^3/s^2                                          
Small-body perts: Yes                             {source: SB441-N16}
Atmos refraction: NO (AIRLESS)
RA format       : HMS
Time format     : CAL 
Calendar mode   : Mixed Julian/Gregorian
RTS-only print  : NO       
EOP file        : eop.250307.p250603                                           
EOP coverage    : DATA-BASED 1962-JAN-20 TO 2025-MAR-07. PREDICTS-> 2025-JUN-02
Units conversion: 1 au= 149597870.700 km, c= 299792.458 km/s, 1 day= 86400.0 s 
Table cut-offs 1: Elevation (-90.0deg=NO ),Airmass (>38.000=NO), Daylight (YES)
Table cut-offs 2: Solar elongation (  0.0,180.0=NO ),Local Hour Angle( 0.0=NO )
Table cut-offs 3: RA/DEC angular rate (     0.0=NO )                           
*******************************************************************************
Initial IAU76/J2000 heliocentric ecliptic osculating elements (au, days, deg.):
  EPOCH=  2458075.5 ! 2017-Nov-18.00 (TDB)         Residual RMS= .20188        
   EC= .977323227404683    QR= 3.132710376610715   TP= 2458155.1551369466      
   OM= 241.7154477774366   W=  216.6888678209022   IN= 144.2025603349357       
  Equivalent ICRF heliocentric cartesian coordinates (au, au/d):
   X= 2.139353138138251E+00  Y= 2.375029509283225E+00  Z= 4.232007070438896E-01
  VX= 5.707101564767909E-03 VY=-6.350221743649190E-03 VZ=-1.041670648532765E-02
Asteroid physical parameters (km, seconds, rotational period in hours):        
   GM= n.a.                RAD= n.a.               ROTPER= n.a.                
   H= 15.3                 G= .150                 B-V= n.a.                   
                           ALBEDO= n.a.            STYP= n.a.                  
*******************************************************************************
 Date__(UT)__HR:MN     R.A._________(ICRF)_________DEC
******************************************************
$$SOE
 2018-Aug-09 05:04 C   01 21 46.635622 -40 08 38.87837
 2018-Aug-09 05:05 C   01 21 46.571110 -40 08 39.95717
 2018-Aug-09 05:06 C   01 21 46.506594 -40 08 41.03599
 2018-Aug-09 05:07 C   01 21 46.442074 -40 08 42.11484
 2018-Aug-09 05:08 C   01 21 46.377550 -40 08 43.19372
 2018-Aug-09 05:09 C   01 21 46.313021 -40 08 44.27262
 2018-Aug-09 05:10 C   01 21 46.248487 -40 08 45.35155
 2018-Aug-09 05:11 C   01 21 46.183950 -40 08 46.43051
 2018-Aug-09 05:12 C   01 21 46.119408 -40 08 47.50949
 2018-Aug-09 05:13 C   01 21 46.054861 -40 08 48.58850
 2018-Aug-09 05:14 C   01 21 45.990310 -40 08 49.66753
 2018-Aug-09 05:15 C   01 21 45.925755 -40 08 50.74660
 2018-Aug-09 05:16 C   01 21 45.861195 -40 08 51.82569
 2018-Aug-09 05:17 C   01 21 45.796630 -40 08 52.90480
 2018-Aug-09 05:18 N   01 21 45.732062 -40 08 53.98394
 2018-Aug-09 05:19 N   01 21 45.667488 -40 08 55.06311
 2018-Aug-09 05:20 N   01 21 45.602910 -40 08 56.14230
 2018-Aug-09 05:21 N   01 21 45.538328 -40 08 57.22152
 2018-Aug-09 05:22 N   01 21 45.473741 -40 08 58.30076
 2018-Aug-09 05:23 N   01 21 45.409149 -40 08 59.38003
 2018-Aug-09 05:24 N   01 21 45.344553 -40 09 00.45933
 2018-Aug-09 05:25 N   01 21 45.279952 -40 09 01.53865
 2018-Aug-09 05:26 N   01 21 45.215346 -40 09 02.61799
 2018-Aug-09 05:27 N   01 21 45.150736 -40 09 03.69736
 2018-Aug-09 05:28 N   01 21 45.086121 -40 09 04.77676
 2018-Aug-09 05:29 N   01 21 45.021502 -40 09 05.85618
 2018-Aug-09 05:30 N   01 21 44.956878 -40 09 06.93563
 2018-Aug-09 05:31 N   01 21 44.892249 -40 09 08.01510
 2018-Aug-09 05:32 N   01 21 44.827615 -40 09 09.09459
 2018-Aug-09 05:33 N   01 21 44.762977 -40 09 10.17411
 2018-Aug-09 05:34 N   01 21 44.698334 -40 09 11.25365
 2018-Aug-09 05:35 N   01 21 44.633686 -40 09 12.33322
 2018-Aug-09 05:36 N   01 21 44.569034 -40 09 13.41281
 2018-Aug-09 05:37 N   01 21 44.504376 -40 09 14.49243
 2018-Aug-09 05:38 N   01 21 44.439714 -40 09 15.57207
 2018-Aug-09 05:39 N   01 21 44.375047 -40 09 16.65173
 2018-Aug-09 05:40 N   01 21 44.310375 -40 09 17.73142
 2018-Aug-09 05:41 N   01 21 44.245698 -40 09 18.81113
 2018-Aug-09 05:42 N   01 21 44.181017 -40 09 19.89087
 2018-Aug-09 05:43 N   01 21 44.116330 -40 09 20.97062
 2018-Aug-09 05:44 N   01 21 44.051639 -40 09 22.05041
 2018-Aug-09 05:45 N   01 21 43.986943 -40 09 23.13021
 2018-Aug-09 05:46 A   01 21 43.922242 -40 09 24.21004
 2018-Aug-09 05:47 A   01 21 43.857536 -40 09 25.28989
 2018-Aug-09 05:48 A   01 21 43.792825 -40 09 26.36976
 2018-Aug-09 05:49 A   01 21 43.728109 -40 09 27.44966
 2018-Aug-09 05:50 A   01 21 43.663388 -40 09 28.52958
 2018-Aug-09 05:51 A   01 21 43.598662 -40 09 29.60952
 2018-Aug-09 05:52 A   01 21 43.533931 -40 09 30.68948
 2018-Aug-09 05:53 A   01 21 43.469195 -40 09 31.76947
 2018-Aug-09 05:54 A   01 21 43.404454 -40 09 32.84948
 2018-Aug-09 05:55 A   01 21 43.339708 -40 09 33.92951
 2018-Aug-09 05:56 A   01 21 43.274957 -40 09 35.00956
 2018-Aug-09 05:57 A   01 21 43.210201 -40 09 36.08963
 2018-Aug-09 05:58 A   01 21 43.145439 -40 09 37.16973
 2018-Aug-09 05:59 A   01 21 43.080673 -40 09 38.24985
 2018-Aug-09 06:00 A   01 21 43.015901 -40 09 39.32999
 2018-Aug-09 06:01 A   01 21 42.951125 -40 09 40.41015
 2018-Aug-09 06:02 A   01 21 42.886343 -40 09 41.49033
 2018-Aug-09 06:03 A   01 21 42.821556 -40 09 42.57053
 2018-Aug-09 06:04 A   01 21 42.756764 -40 09 43.65075
 2018-Aug-09 06:05 A   01 21 42.691967 -40 09 44.73100
 2018-Aug-09 06:06 A   01 21 42.627165 -40 09 45.81126
 2018-Aug-09 06:07 A   01 21 42.562357 -40 09 46.89155
 2018-Aug-09 06:08 A   01 21 42.497545 -40 09 47.97185
 2018-Aug-09 06:09 A   01 21 42.432727 -40 09 49.05218
 2018-Aug-09 06:10 A   01 21 42.367903 -40 09 50.13253
 2018-Aug-09 06:11 A   01 21 42.303075 -40 09 51.21289
 2018-Aug-09 06:12 A   01 21 42.238241 -40 09 52.29328
 2018-Aug-09 06:13     01 21 42.173402 -40 09 53.37369
 2018-Aug-09 06:14     01 21 42.108558 -40 09 54.45411
 2018-Aug-09 06:15     01 21 42.043708 -40 09 55.53456
 2018-Aug-09 06:16     01 21 41.978854 -40 09 56.61503
 2018-Aug-09 06:17     01 21 41.913993 -40 09 57.69551
 2018-Aug-09 06:18     01 21 41.849128 -40 09 58.77602
 2018-Aug-09 06:19     01 21 41.784257 -40 09 59.85654
 2018-Aug-09 06:20     01 21 41.719381 -40 10 00.93708
 2018-Aug-09 06:21     01 21 41.654499 -40 10 02.01764
 2018-Aug-09 06:22     01 21 41.589612 -40 10 03.09822
 2018-Aug-09 06:23     01 21 41.524720 -40 10 04.17882
 2018-Aug-09 06:24     01 21 41.459822 -40 10 05.25944
 2018-Aug-09 06:25     01 21 41.394919 -40 10 06.34007
 2018-Aug-09 06:26     01 21 41.330011 -40 10 07.42073
 2018-Aug-09 06:27     01 21 41.265097 -40 10 08.50140
 2018-Aug-09 06:28     01 21 41.200177 -40 10 09.58209
 2018-Aug-09 06:29     01 21 41.135252 -40 10 10.66280
 2018-Aug-09 06:30     01 21 41.070322 -40 10 11.74352
 2018-Aug-09 06:31     01 21 41.005386 -40 10 12.82427
 2018-Aug-09 06:32     01 21 40.940445 -40 10 13.90503
 2018-Aug-09 06:33     01 21 40.875498 -40 10 14.98581
 2018-Aug-09 06:34     01 21 40.810546 -40 10 16.06660
 2018-Aug-09 06:35     01 21 40.745588 -40 10 17.14741
 2018-Aug-09 06:36     01 21 40.680625 -40 10 18.22824
 2018-Aug-09 06:37     01 21 40.615656 -40 10 19.30909
 2018-Aug-09 06:38     01 21 40.550682 -40 10 20.38995
 2018-Aug-09 06:39     01 21 40.485702 -40 10 21.47083
 2018-Aug-09 06:40     01 21 40.420716 -40 10 22.55173
 2018-Aug-09 06:41     01 21 40.355725 -40 10 23.63264
 2018-Aug-09 06:42     01 21 40.290728 -40 10 24.71357
 2018-Aug-09 06:43     01 21 40.225726 -40 10 25.79451
 2018-Aug-09 06:44     01 21 40.160718 -40 10 26.87547
 2018-Aug-09 06:45     01 21 40.095705 -40 10 27.95645
 2018-Aug-09 06:46     01 21 40.030685 -40 10 29.03744
 2018-Aug-09 06:47     01 21 39.965661 -40 10 30.11844
 2018-Aug-09 06:48     01 21 39.900630 -40 10 31.19947
 2018-Aug-09 06:49     01 21 39.835594 -40 10 32.28050
 2018-Aug-09 06:50     01 21 39.770552 -40 10 33.36156
 2018-Aug-09 06:51     01 21 39.705505 -40 10 34.44262
 2018-Aug-09 06:52     01 21 39.640452 -40 10 35.52371
 2018-Aug-09 06:53     01 21 39.575393 -40 10 36.60480
 2018-Aug-09 06:54     01 21 39.510329 -40 10 37.68591
 2018-Aug-09 06:55     01 21 39.445259 -40 10 38.76704
 2018-Aug-09 06:56     01 21 39.380183 -40 10 39.84818
 2018-Aug-09 06:57     01 21 39.315101 -40 10 40.92933
 2018-Aug-09 06:58     01 21 39.250014 -40 10 42.01050
 2018-Aug-09 06:59     01 21 39.184921 -40 10 43.09168
 2018-Aug-09 07:00     01 21 39.119822 -40 10 44.17288
 2018-Aug-09 07:01     01 21 39.054717 -40 10 45.25409
 2018-Aug-09 07:02     01 21 38.989607 -40 10 46.33531
 2018-Aug-09 07:03     01 21 38.924491 -40 10 47.41655
 2018-Aug-09 07:04     01 21 38.859369 -40 10 48.49780
 2018-Aug-09 07:05     01 21 38.794241 -40 10 49.57906
 2018-Aug-09 07:06     01 21 38.729108 -40 10 50.66033
